{
    "links": {
        "self": "http://www.neowsapp.com/rest/v1/neo/3352689?api_key=iIulBulltgU6a56xZRHN4H3l9WmuAYTsLGpBGhQ2"
    },
    "id": "3352689",
    "neo_reference_id": "3352689",
    "name": "(2006 UF63)",
    "designation": "2006 UF63",
    "nasa_jpl_url": "http://ssd.jpl.nasa.gov/sbdb.cgi?sstr=3352689",
    "absolute_magnitude_h": 20.2,
    "estimated_diameter": {
        "kilometers": {
            "estimated_diameter_min": 0.2424124811,
            "estimated_diameter_max": 0.5420507863
        },
        "meters": {
            "estimated_diameter_min": 242.4124811008,
            "estimated_diameter_max": 542.0507863358
        },
        "miles": {
            "estimated_diameter_min": 0.1506280858,
            "estimated_diameter_max": 0.3368146392
        },
        "feet": {
            "estimated_diameter_min": 795.3165644948,
            "estimated_diameter_max": 1778.3819018419
        }
    },
    "is_potentially_hazardous_asteroid": false,
    "close_approach_data": [
        {
            "close_approach_date": "1937-10-15",
            "close_approach_date_full": "1937-Oct-15 22:09",
            "epoch_date_close_approach": -1016502660000,
            "relative_velocity": {
                "kilometers_per_second": "13.8053140818",
                "kilometers_per_hour": "49699.130694502",
                "miles_per_hour": "30881.1070695921"
            },
            "miss_distance": {
                "astronomical": "0.3330592605",
                "lunar": "129.5600523345",
                "kilometers": "49824955.954575135",
                "miles": "30959792.005541463"
            },
            "orbiting_body": "Earth"
        },
        {
            "close_approach_date": "1968-10-17",
            "close_approach_date_full": "1968-Oct-17 21:22",
            "epoch_date_close_approach": -38025480000,
            "relative_velocity": {
                "kilometers_per_second": "17.1663921289",
                "kilometers_per_hour": "61799.0116639356",
                "miles_per_hour": "38399.5025530715"
            },
            "miss_distance": {
                "astronomical": "0.4180180476",
                "lunar": "162.6090205164",
                "kilometers": "62534609.542518612",
                "miles": "38857204.5372043656"
            },
            "orbiting_body": "Earth"
        },
        {
            "close_approach_date": "1975-10-22",
            "close_approach_date_full": "1975-Oct-22 09:38",
            "epoch_date_close_approach": 183202680000,
            "relative_velocity": {
                "kilometers_per_second": "11.8678048903",
                "kilometers_per_hour": "42724.0976051257",
                "miles_per_hour": "26547.0927591405"
            },
            "miss_distance": {
                "astronomical": "0.4989664674",
                "lunar": "194.0979558186",
                "kilometers": "74644320.724464438",
                "miles": "46381830.1441397244"
            },
            "orbiting_body": "Earth"
        },
        {
            "close_approach_date": "2006-10-16",
            "close_approach_date_full": "2006-Oct-16 17:45",
            "epoch_date_close_approach": 1161020700000,
            "relative_velocity": {
                "kilometers_per_second": "12.6295551378",
                "kilometers_per_hour": "45466.3984960166",
                "miles_per_hour": "28251.0518877055"
            },
            "miss_distance": {
                "astronomical": "0.3575085111",
                "lunar": "139.0708108179",
                "kilometers": "53482511.767431357",
                "miles": "33232491.8011604466"
            },
            "orbiting_body": "Earth"
        },
        {
            "close_approach_date": "2037-10-16",
            "close_approach_date_full": "2037-Oct-16 03:44",
            "epoch_date_close_approach": 2139277440000,
            "relative_velocity": {
                "kilometers_per_second": "15.1549514663",
                "kilometers_per_hour": "54557.8252785324",
                "miles_per_hour": "33900.1109348748"
            },
            "miss_distance": {
                "astronomical": "0.3598178543",
                "lunar": "139.9691453227",
                "kilometers": "53827984.591250341",
                "miles": "33447158.6596470658"
            },
            "orbiting_body": "Earth"
        }
    ],
    "orbital_data": {
        "orbit_id": "15",
        "orbit_determination_date": "2017-04-06 09:07:48",
        "first_observation_date": "2006-10-21",
        "last_observation_date": "2006-12-12",
        "data_arc_in_days": 52,
        "observations_used": 65,
        "orbit_uncertainty": "6",
        "minimum_orbit_intersection": ".331851",
        "jupiter_tisserand_invariant": "3.339",
        "epoch_osculation": "2459000.5",
        "eccentricity": ".4855833292520345",
        "semi_major_axis": "2.282264568638174",
        "inclination": "23.83591277528029",
        "ascending_node_longitude": "46.35669003896695",
        "orbital_period": "1259.352790803851",
        "perihelion_distance": "1.174034941164891",
        "perihelion_argument": "295.9485836175177",
        "aphelion_distance": "3.390494196111458",
        "perihelion_time": "2459013.987462361077",
        "mean_anomaly": "356.1444588955184",
        "mean_motion": ".285861120592118",
        "equinox": "J2000",
        "orbit_class": {
            "orbit_class_type": "AMO",
            "orbit_class_description": "Near-Earth asteroid orbits similar to that of 1221 Amor",
            "orbit_class_range": "1.017 AU < q (perihelion) < 1.3 AU"
        }
    },
    "is_sentry_object": false
}